ONEWEB-0116             
1 48046U 21025E   25116.81605648 -.00000254  00000+0 -73033-3 0  9996
2 48046  87.8992  42.9469 0001937  73.9651 286.1691 13.13467847198995
ONEWEB-0150             
1 48047U 21025F   25116.79236259  .00000187  00000+0  47637-3 0  9996
2 48047  87.8986  42.9531 0001941  83.1037 277.0313 13.13467940198887
ONEWEB-0107             
1 48048U 21025G   25116.79405986  .00000233  00000+0  60201-3 0  9996
2 48048  87.8984  42.9506 0001778  89.1276 271.0057 13.13468052198869
ONEWEB-0101             
1 48049U 21025H   25116.83300194 -.00000086  00000+0 -26971-3 0  9991
2 48049  87.8989  42.9776 0001779  80.3255 279.8075 13.13472153198846
ONEWEB-0113             
1 48050U 21025J   25117.31869502  .00000314  00000+0  81904-3 0  9999
2 48050  87.8990  42.8481 0002040  76.9045 283.2312 13.13970551198996
ONEWEB-0112             
1 48051U 21025K   25117.48473703  .00000206  00000+0  53037-3 0  9998
2 48051  87.8986  42.8104 0001968  80.1549 279.9802 13.13468357199036
ONEWEB-0156             
1 48052U 21025L   25116.80759516 -.00000094  00000+0 -29273-3 0  9995
2 48052  87.8990  42.9539 0001941  83.1502 276.9848 13.13468100198917
ONEWEB-0161             
1 48053U 21025M   25116.85838546  .00000436  00000+0  11600-2 0  9994
2 48053  87.8990  42.9599 0001893  84.8466 275.2879 13.13468834198850
